METAR COR EGLL 301920Z AUTO VRB02KT 8000 NCD 07/05 Q1027 TEMPO 4000 MIFG=